{
  "type": "FeatureCollection",
  "features": [
    {
      "type": "Feature",
      "properties": {
        "norad_id": 28899,
        "name": "INMARSAT 4-F2 (SOUTHPAN/PRN 122)",
        "group": "gnss",
        "lat": 4.417852539221681,
        "lon": 158.94510901576916,
        "alt_km": 35790.64415266241,
        "timestamp": "2025-12-26T18:39:32.522235+00:00",
        "meta_object_name": "INMARSAT 4-F2 (SOUTHPAN/PRN 122)",
        "meta_object_id": "2005-044A",
        "meta_epoch": "2025-12-25T11:49:38.684640",
        "meta_mean_motion": 1.00270481,
        "meta_eccentricity": 0.00024771,
        "meta_inclination": 4.8675,
        "meta_ra_of_asc_node": 43.7139,
        "meta_arg_of_pericenter": 231.4406,
        "meta_mean_anomaly": 140.0074,
        "meta_ephemeris_type": 0,
        "meta_classification_type": "U",
        "meta_norad_cat_id": 28899,
        "meta_element_set_no": 999,
        "meta_rev_at_epoch": 7378,
        "meta_bstar": 0,
        "meta_mean_motion_dot": -2.41e-06,
        "meta_mean_motion_ddot": 0,
        "tle_line1": "1 28899U 05044A   25359.49280885 -.00000241  00000+0  00000+0 0  9993",
        "tle_line2": "2 28899   4.8675  43.7139 0002477 231.4406 140.0074  1.00270481 73789"
      },
      "geometry": {
        "type": "Point",
        "coordinates": [
          158.94510901576916,
          4.417852539221681
        ]
      }
    },
    {
      "type": "Feature",
      "properties": {
        "norad_id": 29486,
        "name": "GPS BIIRM-2 (PRN 31)",
        "group": "gnss",
        "lat": -24.316565926173013,
        "lon": -3.1496426012601897,
        "alt_km": 20449.865215109778,
        "timestamp": "2025-12-26T18:39:32.522248+00:00",
        "meta_object_name": "GPS BIIRM-2 (PRN 31)",
        "meta_object_id": "2006-042A",
        "meta_epoch": "2025-12-26T12:05:34.202112",
        "meta_mean_motion": 2.00553566,
        "meta_eccentricity": 0.01072697,
        "meta_inclination": 54.6956,
        "meta_ra_of_asc_node": 158.1947,
        "meta_arg_of_pericenter": 52.2681,
        "meta_mean_anomaly": 319.984,
        "meta_ephemeris_type": 0,
        "meta_classification_type": "U",
        "meta_norad_cat_id": 29486,
        "meta_element_set_no": 999,
        "meta_rev_at_epoch": 14093,
        "meta_bstar": 0,
        "meta_mean_motion_dot": 1.08e-06,
        "meta_mean_motion_ddot": 0,
        "tle_line1": "1 29486U 06042A   25360.50386808  .00000108  00000+0  00000+0 0  9992",
        "tle_line2": "2 29486  54.6956 158.1947 0107269  52.2681 319.9840  2.00553566140933"
      },
      "geometry": {
        "type": "Point",
        "coordinates": [
          -3.1496426012601897,
          -24.316565926173013
        ]
      }
    },
    {
      "type": "Feature",
      "properties": {
        "norad_id": 29601,
        "name": "GPS BIIRM-3 (PRN 12)",
        "group": "gnss",
        "lat": -54.92400968972961,
        "lon": 128.05828266295748,
        "alt_km": 20420.737400863607,
        "timestamp": "2025-12-26T18:39:32.522261+00:00",
        "meta_object_name": "GPS BIIRM-3 (PRN 12)",
        "meta_object_id": "2006-052A",
        "meta_epoch": "2025-12-25T21:48:25.793568",
        "meta_mean_motion": 2.00574428,
        "meta_eccentricity": 0.00879901,
        "meta_inclination": 54.968,
        "meta_ra_of_asc_node": 220.8755,
        "meta_arg_of_pericenter": 87.5984,
        "meta_mean_anomaly": 273.4866,
        "meta_ephemeris_type": 0,
        "meta_classification_type": "U",
        "meta_norad_cat_id": 29601,
        "meta_element_set_no": 999,
        "meta_rev_at_epoch": 13993,
        "meta_bstar": 0,
        "meta_mean_motion_dot": 7.2e-07,
        "meta_mean_motion_ddot": 0,
        "tle_line1": "1 29601U 06052A   25359.90863187  .00000072  00000+0  00000+0 0  9994",
        "tle_line2": "2 29601  54.9680 220.8755 0087990  87.5984 273.4866  2.00574428139938"
      },
      "geometry": {
        "type": "Point",
        "coordinates": [
          128.05828266295748,
          -54.92400968972961
        ]
      }
    },
    {
      "type": "Feature",
      "properties": {
        "norad_id": 32260,
        "name": "GPS BIIRM-4 (PRN 15)",
        "group": "gnss",
        "lat": 36.12004160275176,
        "lon": 119.22770894247587,
        "alt_km": 19834.671509977503,
        "timestamp": "2025-12-26T18:39:32.522274+00:00",
        "meta_object_name": "GPS BIIRM-4 (PRN 15)",
        "meta_object_id": "2007-047A",
        "meta_epoch": "2025-12-23T05:22:00.882048",
        "meta_mean_motion": 2.00564099,
        "meta_eccentricity": 0.01640403,
        "meta_inclination": 53.9621,
        "meta_ra_of_asc_node": 87.3254,
        "meta_arg_of_pericenter": 85.3777,
        "meta_mean_anomaly": 276.5133,
        "meta_ephemeris_type": 0,
        "meta_classification_type": "U",
        "meta_norad_cat_id": 32260,
        "meta_element_set_no": 999,
        "meta_rev_at_epoch": 13328,
        "meta_bstar": 0,
        "meta_mean_motion_dot": -6e-08,
        "meta_mean_motion_ddot": 0,
        "tle_line1": "1 32260U 07047A   25357.22362132 -.00000006  00000+0  00000+0 0  9999",
        "tle_line2": "2 32260  53.9621  87.3254 0164040  85.3777 276.5133  2.00564099133281"
      },
      "geometry": {
        "type": "Point",
        "coordinates": [
          119.22770894247587,
          36.12004160275176
        ]
      }
    },
    {
      "type": "Feature",
      "properties": {
        "norad_id": 32275,
        "name": "COSMOS 2433 (720)",
        "group": "gnss",
        "lat": 52.863379849812276,
        "lon": -1.630948473132508,
        "alt_km": 19136.206131208135,
        "timestamp": "2025-12-26T18:39:32.522286+00:00",
        "meta_object_name": "COSMOS 2433 (720)",
        "meta_object_id": "2007-052A",
        "meta_epoch": "2025-12-26T05:29:12.755904",
        "meta_mean_motion": 2.13104171,
        "meta_eccentricity": 0.00050813,
        "meta_inclination": 65.6759,
        "meta_ra_of_asc_node": 321.753,
        "meta_arg_of_pericenter": 257.4758,
        "meta_mean_anomaly": 102.4712,
        "meta_ephemeris_type": 0,
        "meta_classification_type": "U",
        "meta_norad_cat_id": 32275,
        "meta_element_set_no": 999,
        "meta_rev_at_epoch": 14137,
        "meta_bstar": 0,
        "meta_mean_motion_dot": -3.3e-07,
        "meta_mean_motion_ddot": 0,
        "tle_line1": "1 32275U 07052A   25360.22861986 -.00000033  00000+0  00000+0 0  9996",
        "tle_line2": "2 32275  65.6759 321.7530 0005081 257.4758 102.4712  2.13104171141375"
      },
      "geometry": {
        "type": "Point",
        "coordinates": [
          -1.630948473132508,
          52.863379849812276
        ]
      }
    },
    {
      "type": "Feature",
      "properties": {
        "norad_id": 32276,
        "name": "COSMOS 2432 (719)",
        "group": "gnss",
        "lat": 5.030583532562716,
        "lon": -35.87537940534233,
        "alt_km": 19111.13358929178,
        "timestamp": "2025-12-26T18:39:32.522299+00:00",
        "meta_object_name": "COSMOS 2432 (719)",
        "meta_object_id": "2007-052B",
        "meta_epoch": "2025-12-26T12:56:48.624288",
        "meta_mean_motion": 2.13103372,
        "meta_eccentricity": 0.00114143,
        "meta_inclination": 65.6918,
        "meta_ra_of_asc_node": 321.8672,
        "meta_arg_of_pericenter": 315.0797,
        "meta_mean_anomaly": 227.7528,
        "meta_ephemeris_type": 0,
        "meta_classification_type": "U",
        "meta_norad_cat_id": 32276,
        "meta_element_set_no": 999,
        "meta_rev_at_epoch": 14140,
        "meta_bstar": 0,
        "meta_mean_motion_dot": -3.4e-07,
        "meta_mean_motion_ddot": 0,
        "tle_line1": "1 32276U 07052B   25360.53945167 -.00000034  00000+0  00000+0 0  9996",
        "tle_line2": "2 32276  65.6918 321.8672 0011414 315.0797 227.7528  2.13103372141404"
      },
      "geometry": {
        "type": "Point",
        "coordinates": [
          -35.87537940534233,
          5.030583532562716
        ]
      }
    },
    {
      "type": "Feature",
      "properties": {
        "norad_id": 32384,
        "name": "GPS BIIRM-5 (PRN 29)",
        "group": "gnss",
        "lat": 2.374574041612094,
        "lon": 99.42413007156543,
        "alt_km": 20102.67232280568,
        "timestamp": "2025-12-26T18:39:32.522312+00:00",
        "meta_object_name": "GPS BIIRM-5 (PRN 29)",
        "meta_object_id": "2007-062A",
        "meta_epoch": "2025-12-26T06:34:08.123232",
        "meta_mean_motion": 2.00549336,
        "meta_eccentricity": 0.00314087,
        "meta_inclination": 55.1705,
        "meta_ra_of_asc_node": 281.103,
        "meta_arg_of_pericenter": 162.2528,
        "meta_mean_anomaly": 11.0381,
        "meta_ephemeris_type": 0,
        "meta_classification_type": "U",
        "meta_norad_cat_id": 32384,
        "meta_element_set_no": 999,
        "meta_rev_at_epoch": 13204,
        "meta_bstar": 0,
        "meta_mean_motion_dot": -2.8e-07,
        "meta_mean_motion_ddot": 0,
        "tle_line1": "1 32384U 07062A   25360.27370513 -.00000028  00000+0  00000+0 0  9998",
        "tle_line2": "2 32384  55.1705 281.1030 0031408 162.2528  11.0381  2.00549336132048"
      },
      "geometry": {
        "type": "Point",
        "coordinates": [
          99.42413007156543,
          2.374574041612094
        ]
      }
    }
  ]
}